NIMIQ 2                 
1 27632U 02062A   26177.64410111 -.00000067  00000+0  00000+0 0  9993
2 27632   9.4671  56.7999 0005795  33.3539 307.3033  1.00272427 44277
ANIK F2                 
1 28378U 04027A   26178.52624308 -.00000041  00000+0  00000+0 0  9999
2 28378   3.3135  79.3146 0004277  14.9606 259.6792  1.00272297 41365
ANIK F1R                
1 28868U 05036A   26178.52484873 -.00000068  00000+0  00000+0 0  9994
2 28868   4.3386  76.4571 0004485   7.4721 273.3454  1.00272166 46553
ANIK F3                 
1 31102U 07009A   26178.46959185  .00000010  00000+0  00000+0 0  9993
2 31102   1.2237  83.7436 0002928   7.3715 234.8171  1.00270591 46662
NIMIQ 4                 
1 33373U 08044A   26178.50487941  .00000000  00000+0  00000+0 0  9995
2 33373   0.0298  43.7188 0001945  52.0862 279.6010  1.00268389 65084
TELSTAR 11N             
1 34111U 09009A   26178.51363279  .00000000  00000+0  00000+0 0  9996
2 34111   0.0269  19.0573 0002778  78.4726 325.4533  1.00269126 46341
TERRESTAR-1             
1 35496U 09035A   26178.46794712 -.00000050  00000+0  00000+0 0  9992
2 35496   5.1813  48.7914 0002661  42.0367 242.2030  1.00273272 62237
NIMIQ 5                 
1 35873U 09050A   26178.50669942 -.00000245  00000+0  00000+0 0  9995
2 35873   0.0365 274.5952 0002979 172.7225 298.0085  1.00270849 61447
SKYTERRA 1              
1 37218U 10061A   26178.36225472 -.00000112  00000+0  00000+0 0  9997
2 37218   5.1463  50.8444 0002423  25.6110 228.1197  1.00273012 57292
TELSTAR 14R             
1 37602U 11021A   26178.50860610 -.00000268  00000+0  00000+0 0  9998
2 37602   0.0445  80.4918 0002408 351.3854 323.8479  1.00271342 55934
NIMIQ 6                 
1 38342U 12026A   26178.50305941 -.00000162  00000+0  00000+0 0  9990
2 38342   0.0136  41.2078 0003001  51.1613 273.2369  1.00271526 50512
ANIK G1                 
1 39127U 13014A   26178.49985272 -.00000062  00000+0  00000+0 0  9998
2 39127   0.0190 296.5866 0001970 158.3497 253.3087  1.00271970 48355
TELSTAR 12V             
1 41036U 15068A   26178.44680350 -.00000107  00000+0  00000+0 0  9995
2 41036   0.0189 337.6841 0002532 109.1646 334.5645  1.00271314 38724
VIASAT-2                
1 42740U 17029A   26178.50721942 -.00000254  00000+0  00000+0 0  9990
2 42740   0.0169 301.4613 0000484 128.8496 318.0244  1.00272211 33304
LEO 1 (LEO VANTAGE 1)   
1 43113U 18004C   26178.33896992  .00004746  00000+0  32691-3 0  9992
2 43113  99.2432  97.9529 0350849  48.4226 314.6492 14.67876758438978
TELSTAR 19V             
1 43562U 18059A   26178.29474273 -.00000268  00000+0  00000+0 0  9990
2 43562   0.0366 145.9659 0003036 330.6543 201.8852  1.00270352 29245
TELSTAR 18V             
1 43611U 18069A   26178.55114008 -.00000281  00000+0  00000+0 0  9997
2 43611   0.0165 331.2571 0002299 115.7839 165.0138  1.00276778 28740
AMOS-17                 
1 44479U 19050A   26178.52420617  .00000121  00000+0  00000+0 0  9996
2 44479   0.0252 318.0097 0002251 166.5310 356.7937  1.00272508 25292
